{
  "type": "FeatureCollection",
  "features": [
    {
      "type": "Feature",
      "properties": {
        "norad_id": 29486,
        "name": "GPS BIIRM-2 (PRN 31)",
        "group": "gps-ops",
        "lat": 10.9597368822553,
        "lon": -29.31727545095143,
        "alt_km": 20297.164272263395,
        "timestamp": "2025-12-16T17:51:11.190155+00:00",
        "meta_object_name": "GPS BIIRM-2 (PRN 31)",
        "meta_object_id": "2006-042A",
        "meta_epoch": "2025-12-15T18:26:47.569632",
        "meta_mean_motion": 2.0055408,
        "meta_eccentricity": 0.01073392,
        "meta_inclination": 54.6945,
        "meta_ra_of_asc_node": 158.6205,
        "meta_arg_of_pericenter": 52.0304,
        "meta_mean_anomaly": 129.1611,
        "meta_ephemeris_type": 0,
        "meta_classification_type": "U",
        "meta_norad_cat_id": 29486,
        "meta_element_set_no": 999,
        "meta_rev_at_epoch": 14071,
        "meta_bstar": 0,
        "meta_mean_motion_dot": 9.5e-07,
        "meta_mean_motion_ddot": 0,
        "tle_line1": "1 29486U 06042A   25349.76860613  .00000095  00000+0  00000+0 0  9993",
        "tle_line2": "2 29486  54.6945 158.6205 0107339  52.0304 129.1611  2.00554080140716"
      },
      "geometry": {
        "type": "Point",
        "coordinates": [
          -29.31727545095143,
          10.9597368822553
        ]
      }
    },
    {
      "type": "Feature",
      "properties": {
        "norad_id": 29601,
        "name": "GPS BIIRM-3 (PRN 12)",
        "group": "gps-ops",
        "lat": -34.62868664883275,
        "lon": 70.20068072305034,
        "alt_km": 20353.40510901314,
        "timestamp": "2025-12-16T17:51:11.190167+00:00",
        "meta_object_name": "GPS BIIRM-3 (PRN 12)",
        "meta_object_id": "2006-052A",
        "meta_epoch": "2025-12-11T22:46:47.068032",
        "meta_mean_motion": 2.00573524,
        "meta_eccentricity": 0.00877389,
        "meta_inclination": 54.9707,
        "meta_ra_of_asc_node": 221.4296,
        "meta_arg_of_pericenter": 87.4221,
        "meta_mean_anomaly": 273.6564,
        "meta_ephemeris_type": 0,
        "meta_classification_type": "U",
        "meta_norad_cat_id": 29601,
        "meta_element_set_no": 999,
        "meta_rev_at_epoch": 13965,
        "meta_bstar": 0,
        "meta_mean_motion_dot": 9e-08,
        "meta_mean_motion_ddot": 0,
        "tle_line1": "1 29601U 06052A   25345.94915588  .00000009  00000+0  00000+0 0  9996",
        "tle_line2": "2 29601  54.9707 221.4296 0087738  87.4221 273.6564  2.00573524139650"
      },
      "geometry": {
        "type": "Point",
        "coordinates": [
          70.20068072305034,
          -34.62868664883275
        ]
      }
    },
    {
      "type": "Feature",
      "properties": {
        "norad_id": 32260,
        "name": "GPS BIIRM-4 (PRN 15)",
        "group": "gps-ops",
        "lat": 1.0409492084973053,
        "lon": 88.34765868052865,
        "alt_km": 20129.51330793627,
        "timestamp": "2025-12-16T17:51:11.190179+00:00",
        "meta_object_name": "GPS BIIRM-4 (PRN 15)",
        "meta_object_id": "2007-047A",
        "meta_epoch": "2025-12-13T18:00:56.680128",
        "meta_mean_motion": 2.00564495,
        "meta_eccentricity": 0.0164139,
        "meta_inclination": 53.9559,
        "meta_ra_of_asc_node": 87.7167,
        "meta_arg_of_pericenter": 85.2596,
        "meta_mean_anomaly": 276.6041,
        "meta_ephemeris_type": 0,
        "meta_classification_type": "U",
        "meta_norad_cat_id": 32260,
        "meta_element_set_no": 999,
        "meta_rev_at_epoch": 13309,
        "meta_bstar": 0,
        "meta_mean_motion_dot": -4.4e-07,
        "meta_mean_motion_ddot": 0,
        "tle_line1": "1 32260U 07047A   25347.75065602 -.00000044  00000+0  00000+0 0  9990",
        "tle_line2": "2 32260  53.9559  87.7167 0164139  85.2596 276.6041  2.00564495133093"
      },
      "geometry": {
        "type": "Point",
        "coordinates": [
          88.34765868052865,
          1.0409492084973053
        ]
      }
    },
    {
      "type": "Feature",
      "properties": {
        "norad_id": 32384,
        "name": "GPS BIIRM-5 (PRN 29)",
        "group": "gps-ops",
        "lat": 37.33976047519296,
        "lon": 69.44383264346646,
        "alt_km": 20102.103249654236,
        "timestamp": "2025-12-16T17:51:11.190191+00:00",
        "meta_object_name": "GPS BIIRM-5 (PRN 29)",
        "meta_object_id": "2007-062A",
        "meta_epoch": "2025-12-15T07:18:28.711872",
        "meta_mean_motion": 2.00577504,
        "meta_eccentricity": 0.00322412,
        "meta_inclination": 55.1799,
        "meta_ra_of_asc_node": 281.543,
        "meta_arg_of_pericenter": 162.3611,
        "meta_mean_anomaly": 10.7934,
        "meta_ephemeris_type": 0,
        "meta_classification_type": "U",
        "meta_norad_cat_id": 32384,
        "meta_element_set_no": 999,
        "meta_rev_at_epoch": 13182,
        "meta_bstar": 0,
        "meta_mean_motion_dot": -7.4e-07,
        "meta_mean_motion_ddot": 0,
        "tle_line1": "1 32384U 07062A   25349.30449898 -.00000074  00000+0  00000+0 0  9993",
        "tle_line2": "2 32384  55.1799 281.5430 0032241 162.3611  10.7934  2.00577504131822"
      },
      "geometry": {
        "type": "Point",
        "coordinates": [
          69.44383264346646,
          37.33976047519296
        ]
      }
    },
    {
      "type": "Feature",
      "properties": {
        "norad_id": 32711,
        "name": "GPS BIIRM-6 (PRN 07)",
        "group": "gps-ops",
        "lat": 43.07005369506482,
        "lon": -160.87631704348306,
        "alt_km": 20709.424531401302,
        "timestamp": "2025-12-16T17:51:11.190202+00:00",
        "meta_object_name": "GPS BIIRM-6 (PRN 07)",
        "meta_object_id": "2008-012A",
        "meta_epoch": "2025-12-15T15:57:56.403360",
        "meta_mean_motion": 2.00565798,
        "meta_eccentricity": 0.02025653,
        "meta_inclination": 54.4774,
        "meta_ra_of_asc_node": 157.2561,
        "meta_arg_of_pericenter": 244.9811,
        "meta_mean_anomaly": 112.9132,
        "meta_ephemeris_type": 0,
        "meta_classification_type": "U",
        "meta_norad_cat_id": 32711,
        "meta_element_set_no": 999,
        "meta_rev_at_epoch": 13007,
        "meta_bstar": 0,
        "meta_mean_motion_dot": 9.3e-07,
        "meta_mean_motion_ddot": 0,
        "tle_line1": "1 32711U 08012A   25349.66523615  .00000093  00000+0  00000+0 0  9992",
        "tle_line2": "2 32711  54.4774 157.2561 0202565 244.9811 112.9132  2.00565798130075"
      },
      "geometry": {
        "type": "Point",
        "coordinates": [
          -160.87631704348306,
          43.07005369506482
        ]
      }
    },
    {
      "type": "Feature",
      "properties": {
        "norad_id": 35752,
        "name": "GPS BIIRM-8 (PRN 05)",
        "group": "gps-ops",
        "lat": 53.84389833730149,
        "lon": 101.52830516736441,
        "alt_km": 20038.81153567122,
        "timestamp": "2025-12-16T17:51:11.190214+00:00",
        "meta_object_name": "GPS BIIRM-8 (PRN 05)",
        "meta_object_id": "2009-043A",
        "meta_epoch": "2025-12-15T22:20:02.106816",
        "meta_mean_motion": 2.00565586,
        "meta_eccentricity": 0.00517182,
        "meta_inclination": 56.0932,
        "meta_ra_of_asc_node": 34.6571,
        "meta_arg_of_pericenter": 81.8462,
        "meta_mean_anomaly": 127.6063,
        "meta_ephemeris_type": 0,
        "meta_classification_type": "U",
        "meta_norad_cat_id": 35752,
        "meta_element_set_no": 999,
        "meta_rev_at_epoch": 11968,
        "meta_bstar": 0,
        "meta_mean_motion_dot": -8.6e-07,
        "meta_mean_motion_ddot": 0,
        "tle_line1": "1 35752U 09043A   25349.93057994 -.00000086  00000+0  00000+0 0  9990",
        "tle_line2": "2 35752  56.0932  34.6571 0051718  81.8462 127.6063  2.00565586119683"
      },
      "geometry": {
        "type": "Point",
        "coordinates": [
          101.52830516736441,
          53.84389833730149
        ]
      }
    },
    {
      "type": "Feature",
      "properties": {
        "norad_id": 36585,
        "name": "GPS BIIF-1  (PRN 25)",
        "group": "gps-ops",
        "lat": -12.937849607480802,
        "lon": 45.42611037279952,
        "alt_km": 20402.176914419815,
        "timestamp": "2025-12-16T17:51:11.190225+00:00",
        "meta_object_name": "GPS BIIF-1  (PRN 25)",
        "meta_object_id": "2010-022A",
        "meta_epoch": "2025-12-15T05:30:38.622816",
        "meta_mean_motion": 2.00553409,
        "meta_eccentricity": 0.01262158,
        "meta_inclination": 54.2997,
        "meta_ra_of_asc_node": 215.9735,
        "meta_arg_of_pericenter": 65.1022,
        "meta_mean_anomaly": 116.5143,
        "meta_ephemeris_type": 0,
        "meta_classification_type": "U",
        "meta_norad_cat_id": 36585,
        "meta_element_set_no": 999,
        "meta_rev_at_epoch": 11390,
        "meta_bstar": 0,
        "meta_mean_motion_dot": 6.3e-07,
        "meta_mean_motion_ddot": 0,
        "tle_line1": "1 36585U 10022A   25349.22961369  .00000063  00000+0  00000+0 0  9990",
        "tle_line2": "2 36585  54.2997 215.9735 0126215  65.1022 116.5143  2.00553409113903"
      },
      "geometry": {
        "type": "Point",
        "coordinates": [
          45.42611037279952,
          -12.937849607480802
        ]
      }
    }
  ]
}